{
 "type": "FeatureCollection",
 "features": [
  {
   "type": "Feature",
   "properties": {
    "name": "Граница проектирования с исключённым участком",
    "note": "Внутреннее кольцо — охранная зона."
   },
   "geometry": {
    "type": "Polygon",
    "coordinates": [
     [
      [
       2245600,
       476200
      ],
      [
       2245918,
       476200
      ],
      [
       2245918,
       476296
      ],
      [
       2245842,
       476296
      ],
      [
       2245842,
       476358
      ],
      [
       2245796,
       476362
      ],
      [
       2245796,
       476441
      ],
      [
       2245684,
       476441
      ],
      [
       2245684,
       476398
      ],
      [
       2245637,
       476391
      ],
      [
       2245600,
       476348
      ],
      [
       2245600,
       476200
      ]
     ],
     [
      [
       2245662,
       476244
      ],
      [
       2245748,
       476244
      ],
      [
       2245748,
       476297
      ],
      [
       2245662,
       476297
      ],
      [
       2245662,
       476244
      ]
     ]
    ]
   }
  }
 ]
}