{
 "type": "FeatureCollection",
 "features": [
  {
   "type": "Feature",
   "properties": {
    "name": "Крупная площадка, 240 вершин"
   },
   "geometry": {
    "type": "Polygon",
    "coordinates": [
     [
      [
       2248020,
       477400
      ],
      [
       2248063.139,
       477433.076
      ],
      [
       2248084.177,
       477467.301
      ],
      [
       2248078.12,
       477500.59
      ],
      [
       2248051.32,
       477531.519
      ],
      [
       2248018.618,
       477560.434
      ],
      [
       2247996.022,
       477589.431
      ],
      [
       2247992.868,
       477621.085
      ],
      [
       2248007.679,
       477656.7
      ],
      [
       2248029.855,
       477695.262
      ],
      [
       2248046.102,
       477733.892
      ],
      [
       2248047.932,
       477769.654
      ],
      [
       2248036.06,
       477801.62
      ],
      [
       2248019.317,
       477831.783
      ],
      [
       2248008.851,
       477864.034
      ],
      [
       2248010.975,
       477901.602
      ],
      [
       2248022.77,
       477944.412
      ],
      [
       2248032.935,
       477988.08
      ],
      [
       2248027.453,
       478025.419
      ],
      [
       2247996.917,
       478049.873
      ],
      [
       2247941.527,
       478059.061
      ],
      [
       2247871.064,
       478056.349
      ],
      [
       2247799.963,
       478049.384
      ],
      [
       2247740.256,
       478046.22
      ],
      [
       2247696.226,
       478051.146
      ],
      [
       2247663.534,
       478062.613
      ],
      [
       2247633.027,
       478074.572
      ],
      [
       2247596.862,
       478080.585
      ],
      [
       2247553.402,
       478078.367
      ],
      [
       2247508.202,
       478072.058
      ],
      [
       2247470.673,
       478070.673
      ],
      [
       2247448.48,
       478083.355
      ],
      [
       2247442.893,
       478114.005
      ],
      [
       2247447.692,
       478158.35
      ],
      [
       2247452.155,
       478205.344
      ],
      [
       2247446.368,
       478242.363
      ],
      [
       2247425.926,
       478261.514
      ],
      [
       2247393.534,
       478263.597
      ],
      [
       2247356.851,
       478257.475
      ],
      [
       2247324.012,
       478255.11
      ],
      [
       2247299.402,
       478264.99
      ],
      [
       2247281.936,
       478287.616
      ],
      [
       2247266.548,
       478315.652
      ],
      [
       2247247.738,
       478338.702
      ],
      [
       2247222.987,
       478350.045
      ],
      [
       2247194.102,
       478351.447
      ],
      [
       2247165.881,
       478353.154
      ],
      [
       2247143.086,
       478368.844
      ],
      [
       2247127.583,
       478408.198
      ],
      [
       2247117.287,
       478471.141
      ],
      [
       2247107.355,
       478547.065
      ],
      [
       2247092.791,
       478619.563
      ],
      [
       2247070.848,
       478674.239
      ],
      [
       2247041.933,
       478705.356
      ],
      [
       2247008.711,
       478717.749
      ],
      [
       2246974.179,
       478723.021
      ],
      [
       2246940.021,
       478732.208
      ],
      [
       2246906.175,
       478749.081
      ],
      [
       2246871.687,
       478767.874
      ],
      [
       2246836.051,
       478776.743
      ],
      [
       2246800,
       478765
      ],
      [
       2246765.172,
       478730.026
      ],
      [
       2246732.924,
       478679.89
      ],
      [
       2246703.191,
       478630.079
      ],
      [
       2246674.293,
       478596.018
      ],
      [
       2246643.938,
       478585.406
      ],
      [
       2246610.803,
       478594.543
      ],
      [
       2246575.629,
       478610.6
      ],
      [
       2246540.991,
       478618.541
      ],
      [
       2246509.773,
       478608.883
      ],
      [
       2246483.267,
       478582.065
      ],
      [
       2246460.192,
       478547.173
      ],
      [
       2246437.417,
       478515.917
      ],
      [
       2246412.106,
       478495.38
      ],
      [
       2246384.016,
       478483.676
      ],
      [
       2246356.4,
       478470.945
      ],
      [
       2246334.696,
       478445.091
      ],
      [
       2246323.503,
       478398.996
      ],
      [
       2246323.509,
       478335.166
      ],
      [
       2246330.237,
       478265.195
      ],
      [
       2246335.598,
       478204.368
      ],
      [
       2246331.611,
       478164.341
      ],
      [
       2246314.334,
       478147.86
      ],
      [
       2246285.736,
       478148.259
      ],
      [
       2246252.336,
       478153.795
      ],
      [
       2246221.247,
       478154.246
      ],
      [
       2246195.831,
       478146.087
      ],
      [
       2246173.533,
       478133.499
      ],
      [
       2246147.315,
       478124.88
      ],
      [
       2246110.032,
       478127.075
      ],
      [
       2246059.327,
       478140.673
      ],
      [
       2246000.139,
       478159.04
      ],
      [
       2245943.127,
       478171.532
      ],
      [
       2245899.622,
       478168.995
      ],
      [
       2245875.725,
       478148.463
      ],
      [
       2245868.851,
       478114.495
      ],
      [
       2245868.774,
       478076.575
      ],
      [
       2245862.764,
       478044.145
      ],
      [
       2245842.114,
       478022.058
      ],
      [
       2245806.46,
       478008.842
      ],
      [
       2245763.473,
       477998.439
      ],
      [
       2245724.057,
       477984.189
      ],
      [
       2245695.752,
       477962.642
      ],
      [
       2245678.114,
       477935.112
      ],
      [
       2245662.81,
       477906.31
      ],
      [
       2245638.522,
       477881.1
      ],
      [
       2245597.989,
       477861.409
      ],
      [
       2245543.201,
       477845.056
      ],
      [
       2245485.677,
       477827.049
      ],
      [
       2245441.441,
       477802.423
      ],
      [
       2245423.277,
       477768.892
      ],
      [
       2245434.433,
       477727.844
      ],
      [
       2245467.219,
       477683.291
      ],
      [
       2245507.28,
       477639.591
      ],
      [
       2245541.202,
       477599.374
      ],
      [
       2245563.265,
       477562.819
      ],
      [
       2245577.628,
       477528.476
      ],
      [
       2245594.804,
       477494.851
      ],
      [
       2245624.474,
       477461.607
      ],
      [
       2245668.786,
       477429.622
      ],
      [
       2245720,
       477400
      ],
      [
       2245763.927,
       477372.869
      ],
      [
       2245787.329,
       477346.928
      ],
      [
       2245785.21,
       477320.134
      ],
      [
       2245763.919,
       477291.104
      ],
      [
       2245738.295,
       477260.224
      ],
      [
       2245724.339,
       477229.632
      ],
      [
       2245731.382,
       477201.943
      ],
      [
       2245757.94,
       477178.503
      ],
      [
       2245793.404,
       477158.338
      ],
      [
       2245824.472,
       477138.608
      ],
      [
       2245842.647,
       477116.419
      ],
      [
       2245848.63,
       477090.881
      ],
      [
       2245851.242,
       477064.027
      ],
      [
       2245861.616,
       477039.788
      ],
      [
       2245886.053,
       477021.431
      ],
      [
       2245921.615,
       477008.918
      ],
      [
       2245956.989,
       476997.904
      ],
      [
       2245978.138,
       476981.24
      ],
      [
       2245975.638,
       476952.408
      ],
      [
       2245949.669,
       476909.061
      ],
      [
       2245909.992,
       476854.602
      ],
      [
       2245871.021,
       476796.714
      ],
      [
       2245844.766,
       476743.486
      ],
      [
       2245835.487,
       476699.24
      ],
      [
       2245838.821,
       476662.461
      ],
      [
       2245845.592,
       476627.135
      ],
      [
       2245847.929,
       476586.854
      ],
      [
       2245844.169,
       476539.366
      ],
      [
       2245839.841,
       476488.843
      ],
      [
       2245844.327,
       476444.327
      ],
      [
       2245865.264,
       476414.994
      ],
      [
       2245903.893,
       476404.772
      ],
      [
       2245953.962,
       476409.417
      ],
      [
       2246004.718,
       476417.908
      ],
      [
       2246046.217,
       476417.65
      ],
      [
       2246074.02,
       476400.775
      ],
      [
       2246090.799,
       476368.107
      ],
      [
       2246104.181,
       476328.533
      ],
      [
       2246122.266,
       476294.038
      ],
      [
       2246149.402,
       476273.132
      ],
      [
       2246184.471,
       476266.337
      ],
      [
       2246222.37,
       476266.337
      ],
      [
       2246257.562,
       476262.755
      ],
      [
       2246287.493,
       476248.891
      ],
      [
       2246313.931,
       476226.525
      ],
      [
       2246341.635,
       476205.919
      ],
      [
       2246375.33,
       476200.769
      ],
      [
       2246416.844,
       476220.768
      ],
      [
       2246464.051,
       476265.856
      ],
      [
       2246512.071,
       476325.435
      ],
      [
       2246555.867,
       476383.113
      ],
      [
       2246592.651,
       476424.5
      ],
      [
       2246622.792,
       476443.869
      ],
      [
       2246648.912,
       476446.065
      ],
      [
       2246673.969,
       476442.698
      ],
      [
       2246699.605,
       476444.808
      ],
      [
       2246725.719,
       476456.171
      ],
      [
       2246751.315,
       476471.026
      ],
      [
       2246775.844,
       476477.531
      ],
      [
       2246800,
       476465
      ],
      [
       2246825.379,
       476430.814
      ],
      [
       2246853.297,
       476383.042
      ],
      [
       2246883.647,
       476337.169
      ],
      [
       2246914.709,
       476308.618
      ],
      [
       2246944.149,
       476305.083
      ],
      [
       2246970.602,
       476322.86
      ],
      [
       2246994.77,
       476349.113
      ],
      [
       2247019.188,
       476368.801
      ],
      [
       2247046.697,
       476372.432
      ],
      [
       2247078.551,
       476360.435
      ],
      [
       2247113.427,
       476341.887
      ],
      [
       2247148.156,
       476328.487
      ],
      [
       2247179.861,
       476327.304
      ],
      [
       2247208.262,
       476336.441
      ],
      [
       2247236.572,
       476346.022
      ],
      [
       2247270.19,
       476343.936
      ],
      [
       2247313.679,
       476323.05
      ],
      [
       2247367.687,
       476285.851
      ],
      [
       2247427.703,
       476243.916
      ],
      [
       2247485.598,
       476212.51
      ],
      [
       2247533.358,
       476203.269
      ],
      [
       2247567.004,
       476218.917
      ],
      [
       2247588.47,
       476252.769
      ],
      [
       2247604.242,
       476293.056
      ],
      [
       2247621.398,
       476329.533
      ],
      [
       2247643.267,
       476358.651
      ],
      [
       2247667.264,
       476384.565
      ],
      [
       2247686.315,
       476415.647
      ],
      [
       2247693.247,
       476458.714
      ],
      [
       2247685.673,
       476514.327
      ],
      [
       2247668.5,
       476575.825
      ],
      [
       2247652.36,
       476632.531
      ],
      [
       2247648.556,
       476675.265
      ],
      [
       2247663.161,
       476701.026
      ],
      [
       2247693.564,
       476714.344
      ],
      [
       2247729.513,
       476724.669
      ],
      [
       2247758.254,
       476741.41
      ],
      [
       2247771.056,
       476769.389
      ],
      [
       2247767.533,
       476807.095
      ],
      [
       2247755.331,
       476848.439
      ],
      [
       2247745.337,
       476886.724
      ],
      [
       2247745.067,
       476918.464
      ],
      [
       2247754.06,
       476944.937
      ],
      [
       2247763.964,
       476970.815
      ],
      [
       2247763.445,
       477000.928
      ],
      [
       2247745.224,
       477037.162
      ],
      [
       2247711.277,
       477077.3
      ],
      [
       2247673.107,
       477116.31
      ],
      [
       2247646.727,
       477149.188
      ],
      [
       2247644.906,
       477173.608
      ],
      [
       2247670.884,
       477190.919
      ],
      [
       2247716.959,
       477205.094
      ],
      [
       2247768.766,
       477220.45
      ],
      [
       2247812.885,
       477239.575
      ],
      [
       2247843.588,
       477262.609
      ],
      [
       2247865.029,
       477288.061
      ],
      [
       2247887.714,
       477314.395
      ],
      [
       2247921.322,
       477341.234
      ],
      [
       2247967.997,
       477369.415
      ],
      [
       2248020,
       477400
      ]
     ]
    ]
   }
  }
 ]
}