{
 "type": "FeatureCollection",
 "features": [
  {
   "type": "Feature",
   "properties": {
    "name": "Два обособленных контура"
   },
   "geometry": {
    "type": "MultiPolygon",
    "coordinates": [
     [
      [
       [
        2245600,
        476200
       ],
       [
        2245918,
        476200
       ],
       [
        2245918,
        476296
       ],
       [
        2245842,
        476296
       ],
       [
        2245842,
        476358
       ],
       [
        2245796,
        476362
       ],
       [
        2245796,
        476441
       ],
       [
        2245684,
        476441
       ],
       [
        2245684,
        476398
       ],
       [
        2245637,
        476391
       ],
       [
        2245600,
        476348
       ],
       [
        2245600,
        476200
       ]
      ],
      [
       [
        2245662,
        476244
       ],
       [
        2245748,
        476244
       ],
       [
        2245748,
        476297
       ],
       [
        2245662,
        476297
       ],
       [
        2245662,
        476244
       ]
      ]
     ],
     [
      [
       [
        2246002,
        476258
       ],
       [
        2246134,
        476258
       ],
       [
        2246134,
        476372
       ],
       [
        2246070,
        476410
       ],
       [
        2246002,
        476372
       ],
       [
        2246002,
        476258
       ]
      ]
     ]
    ]
   }
  }
 ]
}