{
 "type": "FeatureCollection",
 "features": [
  {
   "type": "Feature",
   "properties": {
    "name": "Тот же участок, координаты в миллиметрах",
    "note": "Ожидаемый масштаб 0,001 метра в единице файла."
   },
   "geometry": {
    "type": "Polygon",
    "coordinates": [
     [
      [
       2245600000,
       476200000
      ],
      [
       2245918000,
       476200000
      ],
      [
       2245918000,
       476296000
      ],
      [
       2245842000,
       476296000
      ],
      [
       2245842000,
       476358000
      ],
      [
       2245796000,
       476362000
      ],
      [
       2245796000,
       476441000
      ],
      [
       2245684000,
       476441000
      ],
      [
       2245684000,
       476398000
      ],
      [
       2245637000,
       476391000
      ],
      [
       2245600000,
       476348000
      ],
      [
       2245600000,
       476200000
      ]
     ]
    ]
   }
  }
 ]
}